SL-14 R/B               
1 16792U 86046B   25337.62091235  .00000767  00000+0  85705-4 0  9995
2 16792  82.4812 170.9260 0023026 181.9579 178.1551 14.85469081112143
SL-14 R/B               
1 16882U 86055B   25337.89353718  .00000928  00000+0  10453-3 0  9997
2 16882  82.5212 216.6844 0017580 291.2200 154.9101 14.85517631105148
AJISAI (EGS)            
1 16908U 86061A   25337.90486744 -.00000087  00000+0  71224-4 0  9992
2 16908  50.0113  27.8836 0011267  43.7449   5.8665 12.44514163456071
COSMOS 1812             
1 17295U 87003A   25337.95934278  .00137739  00000+0  98309-3 0  9990
2 17295  82.4869 301.5059 0007088  97.5199 262.6870 15.73330723129275
SL-14 R/B               
1 17567U 87024B   25337.82382144  .00000866  00000+0  96137-4 0  9998
2 17567  82.5280 182.8300 0017352 214.6488 145.3600 14.86010409 73895
COSMOS 1833             
1 17589U 87027A   25337.93967495  .00000069  00000+0  62441-4 0  9991
2 17589  70.9129 167.2768 0022154 344.1061  15.9362 14.13018721996783
SL-16 R/B               
1 17590U 87027B   25337.83814073  .00000016  00000+0  31557-4 0  9991
2 17590  71.0021 118.4747 0007525 269.0883  90.9379 14.17152454  1767
SL-14 R/B               
1 17912U 87038B   25337.63481997  .00000721  00000+0  80966-4 0  9995
2 17912  82.5025  27.2763 0020632 120.0711 240.2555 14.85247798 64970
COSMOS 1844             
1 17973U 87041A   25337.93463781 -.00000102  00000+0 -27716-4 0  9999
2 17973  70.8988 236.1422 0030376 171.1433 189.0231 14.14527766990047
SL-14 R/B               
1 18153U 87055B   25337.76301798  .00000825  00000+0  92471-4 0  9995
2 18153  82.5000  79.4476 0019989 334.5129  25.5099 14.85505742 55691
SL-14 R/B               
1 18749U 88001B   25337.88671030  .00000979  00000+0  11060-3 0  9994
2 18749  82.5125 285.4744 0017671 190.2666 169.8192 14.85409239 27808
